{"type":"FeatureCollection","features":[{"type":"Feature","properties":{"hospital_name":"Alexandra Hospital","address":"378 Alexandra Road","postal_code":159964},"geometry":{"type":"Point","coordinates":[103.801068,1.286624]}},{"type":"Feature","properties":{"hospital_name":"Changi General Hospital","address":"2 Simei Street 3","postal_code":529889},"geometry":{"type":"Point","coordinates":[103.949558,1.34064]}},{"type":"Feature","properties":{"hospital_name":"Ng Teng Fong General Hospital","address":"1 Jurong East Street 21","postal_code":609606},"geometry":{"type":"Point","coordinates":[103.745559,1.3334]}},{"type":"Feature","properties":{"hospital_name":"National University Hospital","address":"5 Lower Kent Ridge Road","postal_code":119074},"geometry":{"type":"Point","coordinates":[103.783308,1.295185]}},{"type":"Feature","properties":{"hospital_name":"Khoo Teck Puat Hospital","address":"90 Yishun Central","postal_code":768828},"geometry":{"type":"Point","coordinates":[103.838688,1.423923]}},{"type":"Feature","properties":{"hospital_name":"Singapore General Hospital","address":"Outram Road","postal_code":169608},"geometry":{"type":"Point","coordinates":[103.834904,1.279929]}},{"type":"Feature","properties":{"hospital_name":"Tan Tock Seng Hospital","address":"11 Jalan Tan Tock Seng","postal_code":308433},"geometry":{"type":"Point","coordinates":[103.846154,1.320777]}},{"type":"Feature","properties":{"hospital_name":"KK Women's and Children's Hospital","address":"100 Bukit Timah Road","postal_code":229899},"geometry":{"type":"Point","coordinates":[103.846863,1.310545]}}]}