{"type":"FeatureCollection","features":[{"type":"Feature","properties":{"all_schools_2016":"ADMIRALTY PRIMARY SCHOOL","address":"11 WOODLANDS CIRCLE","postal_code":738907},"geometry":{"type":"Point","coordinates":[103.8004349,1.4430507]}},{"type":"Feature","properties":{"all_schools_2016":"ADMIRALTY SECONDARY SCHOOL","address":"31 WOODLANDS CRESCENT","postal_code":737916},"geometry":{"type":"Point","coordinates":[103.8026082,1.4462673]}},{"type":"Feature","properties":{"all_schools_2016":"AHMAD IBRAHIM PRIMARY SCHOOL","address":"10 YISHUN STREET 11","postal_code":768643},"geometry":{"type":"Point","coordinates":[103.832814,1.433429]}},{"type":"Feature","properties":{"all_schools_2016":"AHMAD IBRAHIM SECONDARY SCHOOL","address":"751 YISHUN AVENUE 7","postal_code":768928},"geometry":{"type":"Point","coordinates":[103.8299037,1.436316]}},{"type":"Feature","properties":{"all_schools_2016":"AI TONG SCHOOL","address":"100 Bright Hill Drive","postal_code":579646},"geometry":{"type":"Point","coordinates":[103.8326758,1.3610213]}},{"type":"Feature","properties":{"all_schools_2016":"ALEXANDRA PRIMARY SCHOOL","address":"2A Prince Charles Crescent","postal_code":159016},"geometry":{"type":"Point","coordinates":[103.8235733,1.2912857]}},{"type":"Feature","properties":{"all_schools_2016":"ANCHOR GREEN PRIMARY SCHOOL","address":"31 Anchorvale Drive","postal_code":544969},"geometry":{"type":"Point","coordinates":[103.8874074,1.3909254]}},{"type":"Feature","properties":{"all_schools_2016":"ANDERSON JUNIOR COLLEGE","address":"4500 ANG MO KIO AVENUE 6","postal_code":569843},"geometry":{"type":"Point","coordinates":[103.8455069,1.3788363]}},{"type":"Feature","properties":{"all_schools_2016":"ANDERSON PRIMARY SCHOOL","address":"19 ANG MO KIO AVE 9 ANDERSON PRIMARY SCHOOL","postal_code":569785},"geometry":{"type":"Point","coordinates":[103.841225,1.384692]}},{"type":"Feature","properties":{"all_schools_2016":"ANDERSON SECONDARY SCHOOL","address":"10 ANG MO KIO STREET 53","postal_code":569206},"geometry":{"type":"Point","coordinates":[103.8510309,1.374639]}},{"type":"Feature","properties":{"all_schools_2016":"ANG MO KIO PRIMARY SCHOOL","address":"20 ANG MO KIO AVENUE 3 ANG MO KIO PRIMARY SCHOOL","postal_code":569920},"geometry":{"type":"Point","coordinates":[103.8398314,1.3694039]}},{"type":"Feature","properties":{"all_schools_2016":"ANG MO KIO SECONDARY SCHOOL","address":"6 ANG MO KIO STREET 22","postal_code":569362},"geometry":{"type":"Point","coordinates":[103.8426,1.367353]}},{"type":"Feature","properties":{"all_schools_2016":"ANGLICAN HIGH SCHOOL","address":"600 UPPER CHANGI ROAD","postal_code":487012},"geometry":{"type":"Point","coordinates":[103.9416359,1.3307761]}},{"type":"Feature","properties":{"all_schools_2016":"ANGLO-CHINESE JUNIOR COLLEGE","address":"25 DOVER CLOSE EAST","postal_code":139745},"geometry":{"type":"Point","coordinates":[103.785109,1.3031354]}},{"type":"Feature","properties":{"all_schools_2016":"ANGLO-CHINESE SCHOOL (BARKER ROAD)","address":"60 BARKER ROAD","postal_code":309919},"geometry":{"type":"Point","coordinates":[103.835852,1.3197406]}},{"type":"Feature","properties":{"all_schools_2016":"ANGLO-CHINESE SCHOOL (INDEPENDENT)","address":"121 DOVER ROAD","postal_code":139650},"geometry":{"type":"Point","coordinates":[103.7805524,1.3027021]}},{"type":"Feature","properties":{"all_schools_2016":"ANGLO-CHINESE SCHOOL (JUNIOR)","address":"16 WINSTEDT ROAD","postal_code":227988},"geometry":{"type":"Point","coordinates":[103.8413123,1.3089007]}},{"type":"Feature","properties":{"all_schools_2016":"ANGLO-CHINESE SCHOOL (PRIMARY)","address":"50 BARKER ROAD","postal_code":309918},"geometry":{"type":"Point","coordinates":[103.835345,1.318735]}},{"type":"Feature","properties":{"all_schools_2016":"ANGSANA PRIMARY SCHOOL","address":"3 Tampines Street 22","postal_code":529366},"geometry":{"type":"Point","coordinates":[103.9516762,1.3487389]}},{"type":"Feature","properties":{"all_schools_2016":"ASSUMPTION ENGLISH SCHOOL","address":"622 Upper Bukit Timah Road Assumption English School","postal_code":678117},"geometry":{"type":"Point","coordinates":[103.7659784,1.3681882]}},{"type":"Feature","properties":{"all_schools_2016":"ASSUMPTION PATHWAY SCHOOL","address":"30 Cashew Road","postal_code":679697},"geometry":{"type":"Point","coordinates":[103.7661969,1.3700759]}},{"type":"Feature","properties":{"all_schools_2016":"BALESTIER HILL PRIMARY SCHOOL","address":"565 BALESTIER ROAD","postal_code":329927},"geometry":{"type":"Point","coordinates":[103.8444126,1.3256088]}},{"type":"Feature","properties":{"all_schools_2016":"BALESTIER HILL SECONDARY SCHOOL","address":"11 NOVENA RISE","postal_code":307516},"geometry":{"type":"Point","coordinates":[103.8445293,1.3248911]}},{"type":"Feature","properties":{"all_schools_2016":"BARTLEY SECONDARY SCHOOL","address":"10 JALAN BUNGA RAMPAI ROAD","postal_code":538403},"geometry":{"type":"Point","coordinates":[103.882831,1.340275]}},{"type":"Feature","properties":{"all_schools_2016":"BEACON PRIMARY SCHOOL","address":"36 Bukit Panjang Ring Road","postal_code":679944},"geometry":{"type":"Point","coordinates":[103.77377,1.384235]}},{"type":"Feature","properties":{"all_schools_2016":"BEATTY SECONDARY SCHOOL","address":"1 TOA PAYOH NORTH","postal_code":318990},"geometry":{"type":"Point","coordinates":[103.851956,1.34154]}},{"type":"Feature","properties":{"all_schools_2016":"BEDOK GREEN PRIMARY SCHOOL","address":"1 BEDOK SOUTH AVE 2","postal_code":469317},"geometry":{"type":"Point","coordinates":[103.937455,1.3237686]}},{"type":"Feature","properties":{"all_schools_2016":"BEDOK GREEN SECONDARY SCHOOL","address":"360 BEDOK NORTH AVE 3","postal_code":469722},"geometry":{"type":"Point","coordinates":[103.935336,1.3341416]}},{"type":"Feature","properties":{"all_schools_2016":"BEDOK NORTH SECONDARY SCHOOL","address":"20 JALAN DAMAI","postal_code":419612},"geometry":{"type":"Point","coordinates":[103.9102302,1.3347987]}},{"type":"Feature","properties":{"all_schools_2016":"BEDOK SOUTH SECONDARY SCHOOL","address":"1 JALAN LANGGAR BEDOK","postal_code":468585},"geometry":{"type":"Point","coordinates":[103.950977,1.3248089]}},{"type":"Feature","properties":{"all_schools_2016":"BEDOK VIEW SECONDARY SCHOOL","address":"6 BEDOK SOUTH AVENUE 3","postal_code":469293},"geometry":{"type":"Point","coordinates":[103.9438629,1.3246274]}},{"type":"Feature","properties":{"all_schools_2016":"BENDEMEER PRIMARY SCHOOL","address":"91 BENDEMEER ROAD","postal_code":339948},"geometry":{"type":"Point","coordinates":[103.8655072,1.321834]}},{"type":"Feature","properties":{"all_schools_2016":"BENDEMEER SECONDARY SCHOOL","address":"1 ST WILFRED ROAD","postal_code":327919},"geometry":{"type":"Point","coordinates":[103.8606641,1.3246123]}},{"type":"Feature","properties":{"all_schools_2016":"BISHAN PARK SECONDARY SCHOOL","address":"2 SIN MING WALK","postal_code":575565},"geometry":{"type":"Point","coordinates":[103.8328855,1.3643739]}},{"type":"Feature","properties":{"all_schools_2016":"BLANGAH RISE PRIMARY SCHOOL","address":"91 TELOK BLANGAH HEIGHTS","postal_code":109100},"geometry":{"type":"Point","coordinates":[103.8086755,1.2761957]}},{"type":"Feature","properties":{"all_schools_2016":"BOON LAY GARDEN PRIMARY SCHOOL","address":"20 BOON LAY DRIVE","postal_code":649930},"geometry":{"type":"Point","coordinates":[103.712983,1.34287]}},{"type":"Feature","properties":{"all_schools_2016":"BOON LAY SECONDARY SCHOOL","address":"11 JURONG WEST STREET 65","postal_code":648354},"geometry":{"type":"Point","coordinates":[103.701945,1.342172]}},{"type":"Feature","properties":{"all_schools_2016":"BOWEN SECONDARY SCHOOL","address":"2 LORONG NAPIRI","postal_code":547529},"geometry":{"type":"Point","coordinates":[103.877974,1.371165]}},{"type":"Feature","properties":{"all_schools_2016":"BROADRICK SECONDARY SCHOOL","address":"61 DAKOTA CRESCENT","postal_code":399935},"geometry":{"type":"Point","coordinates":[103.8872129,1.3072755]}},{"type":"Feature","properties":{"all_schools_2016":"BUKIT BATOK SECONDARY SCHOOL","address":"50 BUKIT BATOK WEST AVE 8","postal_code":658962},"geometry":{"type":"Point","coordinates":[103.740867,1.348506]}},{"type":"Feature","properties":{"all_schools_2016":"BUKIT MERAH SECONDARY SCHOOL","address":"10 LENGKOK BAHRU","postal_code":159050},"geometry":{"type":"Point","coordinates":[103.813113,1.2858957]}},{"type":"Feature","properties":{"all_schools_2016":"BUKIT PANJANG GOVT. HIGH SCHOOL","address":"7 CHOA CHU KANG AVE 4","postal_code":689809},"geometry":{"type":"Point","coordinates":[103.7385804,1.3818716]}},{"type":"Feature","properties":{"all_schools_2016":"BUKIT PANJANG PRIMARY SCHOOL","address":"109 CASHEW ROAD","postal_code":679676},"geometry":{"type":"Point","coordinates":[103.7695266,1.3735964]}},{"type":"Feature","properties":{"all_schools_2016":"BUKIT TIMAH PRIMARY SCHOOL","address":"111 Lorong Kismis Bukit Timah Primary School","postal_code":598112},"geometry":{"type":"Point","coordinates":[103.766768,1.337385]}},{"type":"Feature","properties":{"all_schools_2016":"BUKIT VIEW PRIMARY SCHOOL","address":"18 BUKIT BATOK STREET 21","postal_code":659634},"geometry":{"type":"Point","coordinates":[103.7534607,1.3459081]}},{"type":"Feature","properties":{"all_schools_2016":"BUKIT VIEW SECONDARY SCHOOL","address":"16 BUKIT BATOK STREET 21","postal_code":659633},"geometry":{"type":"Point","coordinates":[103.752662,1.346088]}},{"type":"Feature","properties":{"all_schools_2016":"CANBERRA PRIMARY SCHOOL","address":"21 ADMIRALTY DRIVE","postal_code":757714},"geometry":{"type":"Point","coordinates":[103.8155405,1.450997]}},{"type":"Feature","properties":{"all_schools_2016":"CANBERRA SECONDARY SCHOOL","address":"51 SEMBAWANG DRIVE","postal_code":757699},"geometry":{"type":"Point","coordinates":[103.8144127,1.4536632]}},{"type":"Feature","properties":{"all_schools_2016":"CANOSSA CONVENT PRIMARY SCHOOL","address":"1 Sallim Road","postal_code":387621},"geometry":{"type":"Point","coordinates":[103.8818876,1.3265573]}},{"type":"Feature","properties":{"all_schools_2016":"CANTONMENT PRIMARY SCHOOL","address":"1 Cantonment Close","postal_code":88256},"geometry":{"type":"Point","coordinates":[103.83997,1.275586]}},{"type":"Feature","properties":{"all_schools_2016":"CASUARINA PRIMARY SCHOOL","address":"30 PASIR RIS ST 41","postal_code":518935},"geometry":{"type":"Point","coordinates":[103.9573162,1.3727721]}},{"type":"Feature","properties":{"all_schools_2016":"CATHOLIC HIGH SCHOOL","address":"9 BISHAN STREET 22","postal_code":579767},"geometry":{"type":"Point","coordinates":[103.8451234,1.3546049]}},{"type":"Feature","properties":{"all_schools_2016":"CATHOLIC JUNIOR COLLEGE","address":"129 WHITLEY ROAD","postal_code":297822},"geometry":{"type":"Point","coordinates":[103.8352119,1.3249829]}},{"type":"Feature","properties":{"all_schools_2016":"CEDAR GIRLS' SECONDARY SCHOOL","address":"1 CEDAR AVENUE","postal_code":349692},"geometry":{"type":"Point","coordinates":[103.8741655,1.3342746]}},{"type":"Feature","properties":{"all_schools_2016":"CEDAR PRIMARY SCHOOL","address":"15 CEDAR AVENUE","postal_code":349700},"geometry":{"type":"Point","coordinates":[103.8754605,1.3356131]}},{"type":"Feature","properties":{"all_schools_2016":"CHANGKAT CHANGI SECONDARY SCHOOL","address":"23 SIMEI ST 3","postal_code":529894},"geometry":{"type":"Point","coordinates":[103.9526953,1.3403707]}},{"type":"Feature","properties":{"all_schools_2016":"CHANGKAT PRIMARY SCHOOL","address":"11 SIMEI ST 3","postal_code":529896},"geometry":{"type":"Point","coordinates":[103.951985,1.3404098]}},{"type":"Feature","properties":{"all_schools_2016":"CHIJ (KATONG) PRIMARY","address":"17 MARTIA ROAD","postal_code":424821},"geometry":{"type":"Point","coordinates":[103.9109552,1.3064102]}},{"type":"Feature","properties":{"all_schools_2016":"CHIJ (KELLOCK)","address":"1 Bukit Teresa Road","postal_code":99757},"geometry":{"type":"Point","coordinates":[103.800518,1.3017009]}},{"type":"Feature","properties":{"all_schools_2016":"CHIJ KATONG CONVENT","address":"3 GEYLANG BAHRU LANE","postal_code":339626},"geometry":{"type":"Point","coordinates":[103.9166868,1.3063984]}},{"type":"Feature","properties":{"all_schools_2016":"CHIJ OUR LADY OF GOOD COUNSEL","address":"2C Burghley Drive","postal_code":558979},"geometry":{"type":"Point","coordinates":[103.8637708,1.357391]}},{"type":"Feature","properties":{"all_schools_2016":"CHIJ OUR LADY OF THE NATIVITY","address":"1257 UPPER SERANGOON ROAD","postal_code":534793},"geometry":{"type":"Point","coordinates":[103.897543,1.3735318]}},{"type":"Feature","properties":{"all_schools_2016":"CHIJ OUR LADY QUEEN OF PEACE","address":"4 Chestnut Drive","postal_code":679287},"geometry":{"type":"Point","coordinates":[103.7675404,1.3666563]}},{"type":"Feature","properties":{"all_schools_2016":"CHIJ PRIMARY (TOA PAYOH)","address":"628 Lorong 1 Toa Payoh","postal_code":319765},"geometry":{"type":"Point","coordinates":[103.8423309,1.3331227]}},{"type":"Feature","properties":{"all_schools_2016":"CHIJ SECONDARY (TOA PAYOH)","address":"626 LORONG 1 TOA PAYOH","postal_code":319764},"geometry":{"type":"Point","coordinates":[103.8428056,1.3323048]}},{"type":"Feature","properties":{"all_schools_2016":"CHIJ ST. JOSEPH'S CONVENT","address":"62 SENG KANG EAST WAY","postal_code":548595},"geometry":{"type":"Point","coordinates":[103.902461,1.391747]}},{"type":"Feature","properties":{"all_schools_2016":"CHIJ ST. NICHOLAS GIRLS' SCHOOL","address":"501 ANG MO KIO STREET 13","postal_code":569405},"geometry":{"type":"Point","coordinates":[103.834301,1.373744]}},{"type":"Feature","properties":{"all_schools_2016":"CHIJ ST. THERESA'S CONVENT","address":"160 LOWER DELTA ROAD","postal_code":99138},"geometry":{"type":"Point","coordinates":[103.8221205,1.2752529]}},{"type":"Feature","properties":{"all_schools_2016":"CHONG BOON SECONDARY SCHOOL","address":"2 ANG MO KIO STREET 44","postal_code":569250},"geometry":{"type":"Point","coordinates":[103.8580392,1.3640957]}},{"type":"Feature","properties":{"all_schools_2016":"CHONGFU SCHOOL","address":"170 YISHUN AVENUE 6","postal_code":768959},"geometry":{"type":"Point","coordinates":[103.8393785,1.4388464]}},{"type":"Feature","properties":{"all_schools_2016":"CHONGZHENG PRIMARY SCHOOL","address":"1 TAMPINES STREET 21","postal_code":529392},"geometry":{"type":"Point","coordinates":[103.951438,1.350835]}},{"type":"Feature","properties":{"all_schools_2016":"CHRIST CHURCH SECONDARY SCHOOL","address":"20 WOODLANDS DRIVE 17","postal_code":737924},"geometry":{"type":"Point","coordinates":[103.793419,1.426395]}},{"type":"Feature","properties":{"all_schools_2016":"CHUA CHU KANG PRIMARY SCHOOL","address":"20 CHOA CHU KANG AVENUE 2","postal_code":689905},"geometry":{"type":"Point","coordinates":[103.7423121,1.3778193]}},{"type":"Feature","properties":{"all_schools_2016":"CHUA CHU KANG SECONDARY SCHOOL","address":"3 TECK WHYE CRESCENT","postal_code":688845},"geometry":{"type":"Point","coordinates":[103.7515449,1.3834832]}},{"type":"Feature","properties":{"all_schools_2016":"CHUNG CHENG HIGH SCHOOL (MAIN)","address":"50 GOODMAN ROAD","postal_code":439012},"geometry":{"type":"Point","coordinates":[103.8915495,1.3054121]}},{"type":"Feature","properties":{"all_schools_2016":"CHUNG CHENG HIGH SCHOOL (YISHUN)","address":"11 YISHUN STREET 61","postal_code":768547},"geometry":{"type":"Point","coordinates":[103.837311,1.418737]}},{"type":"Feature","properties":{"all_schools_2016":"CLEMENTI PRIMARY SCHOOL","address":"8 CLEMENTI AVE 3","postal_code":129903},"geometry":{"type":"Point","coordinates":[103.763047,1.3155899]}},{"type":"Feature","properties":{"all_schools_2016":"CLEMENTI TOWN SECONDARY SCHOOL","address":"10 CLEMENTI AVE 3","postal_code":129904},"geometry":{"type":"Point","coordinates":[103.7622758,1.3154881]}},{"type":"Feature","properties":{"all_schools_2016":"COMMONWEALTH SECONDARY SCHOOL","address":"698 WEST COAST ROAD","postal_code":608784},"geometry":{"type":"Point","coordinates":[103.7455916,1.3189295]}},{"type":"Feature","properties":{"all_schools_2016":"COMPASSVALE PRIMARY SCHOOL","address":"21 COMPASSVALE ST","postal_code":545091},"geometry":{"type":"Point","coordinates":[103.897901,1.39418]}},{"type":"Feature","properties":{"all_schools_2016":"COMPASSVALE SECONDARY SCHOOL","address":"51 COMPASSVALE CRESCENT","postal_code":545083},"geometry":{"type":"Point","coordinates":[103.899711,1.396086]}},{"type":"Feature","properties":{"all_schools_2016":"CONCORD PRIMARY SCHOOL","address":"3 CHOA CHU KANG AVE 4","postal_code":689814},"geometry":{"type":"Point","coordinates":[103.7363383,1.380347]}},{"type":"Feature","properties":{"all_schools_2016":"CORAL PRIMARY SCHOOL","address":"20 PASIR RIS ST 51","postal_code":518902},"geometry":{"type":"Point","coordinates":[103.9509375,1.3683155]}},{"type":"Feature","properties":{"all_schools_2016":"CORAL SECONDARY SCHOOL","address":"31 PASIR RIS STREET 51","postal_code":518901},"geometry":{"type":"Point","coordinates":[103.9492665,1.3675302]}},{"type":"Feature","properties":{"all_schools_2016":"CORPORATION PRIMARY SCHOOL","address":"31 JURONG WEST STREET 24","postal_code":648347},"geometry":{"type":"Point","coordinates":[103.707576,1.351499]}},{"type":"Feature","properties":{"all_schools_2016":"CRESCENT GIRLS' SCHOOL","address":"357 TANGLIN ROAD","postal_code":247961},"geometry":{"type":"Point","coordinates":[103.8166752,1.2940179]}},{"type":"Feature","properties":{"all_schools_2016":"CREST SECONDARY SCHOOL","address":"561 JURONG EAST STREET 24","postal_code":609561},"geometry":{"type":"Point","coordinates":[103.7428639,1.3436637]}},{"type":"Feature","properties":{"all_schools_2016":"DA QIAO PRIMARY SCHOOL","address":"8 ANG MO KIO STREET 54","postal_code":569185},"geometry":{"type":"Point","coordinates":[103.858833,1.371901]}},{"type":"Feature","properties":{"all_schools_2016":"DAMAI PRIMARY SCHOOL","address":"50 BEDOK RESERVOIR CRESCENT","postal_code":479225},"geometry":{"type":"Point","coordinates":[103.9202901,1.3353993]}},{"type":"Feature","properties":{"all_schools_2016":"DAMAI SECONDARY SCHOOL","address":"4800 BEDOK RESERVOIR ROAD","postal_code":479229},"geometry":{"type":"Point","coordinates":[103.9269971,1.3371168]}},{"type":"Feature","properties":{"all_schools_2016":"DAZHONG PRIMARY SCHOOL","address":"35 BUKIT BATOK STREET 31","postal_code":659441},"geometry":{"type":"Point","coordinates":[103.7480154,1.3593772]}},{"type":"Feature","properties":{"all_schools_2016":"DE LA SALLE SCHOOL","address":"11 Choa Chu Kang St 52","postal_code":689285},"geometry":{"type":"Point","coordinates":[103.7433445,1.3948903]}},{"type":"Feature","properties":{"all_schools_2016":"DEYI SECONDARY SCHOOL","address":"1 ANG MO KIO STREET 42","postal_code":569277},"geometry":{"type":"Point","coordinates":[103.852332,1.366107]}},{"type":"Feature","properties":{"all_schools_2016":"DUNEARN SECONDARY SCHOOL","address":"247 Jalan Boon Lay","postal_code":619522},"geometry":{"type":"Point","coordinates":[103.7107119,1.3413759]}},{"type":"Feature","properties":{"all_schools_2016":"DUNMAN HIGH SCHOOL","address":"10 TANJONG RHU ROAD","postal_code":436895},"geometry":{"type":"Point","coordinates":[103.8822616,1.2983683]}},{"type":"Feature","properties":{"all_schools_2016":"DUNMAN SECONDARY SCHOOL","address":"21 TAMPINES STREET 45","postal_code":529093},"geometry":{"type":"Point","coordinates":[103.9559258,1.3610555]}},{"type":"Feature","properties":{"all_schools_2016":"EAST COAST PRIMARY SCHOOL","address":"8 CHAI CHEE LANE","postal_code":469031},"geometry":{"type":"Point","coordinates":[103.920122,1.329414]}},{"type":"Feature","properties":{"all_schools_2016":"EAST SPRING PRIMARY SCHOOL","address":"31 TAMPINES ST 33","postal_code":529258},"geometry":{"type":"Point","coordinates":[103.961799,1.35349]}},{"type":"Feature","properties":{"all_schools_2016":"EAST SPRING SECONDARY SCHOOL","address":"30 TAMPINES STREET 34","postal_code":529231},"geometry":{"type":"Point","coordinates":[103.9607517,1.3568208]}},{"type":"Feature","properties":{"all_schools_2016":"EAST VIEW PRIMARY SCHOOL","address":"4 TAMPINES STREET 91","postal_code":528907},"geometry":{"type":"Point","coordinates":[103.939585,1.346797]}},{"type":"Feature","properties":{"all_schools_2016":"EAST VIEW SECONDARY SCHOOL","address":"3 TAMPINES STREET 42","postal_code":529177},"geometry":{"type":"Point","coordinates":[103.9493416,1.35813]}},{"type":"Feature","properties":{"all_schools_2016":"EDGEFIELD PRIMARY SCHOOL","address":"41 EDGEFIELD PLAINS","postal_code":828869},"geometry":{"type":"Point","coordinates":[103.9075894,1.4002485]}},{"type":"Feature","properties":{"all_schools_2016":"EDGEFIELD SECONDARY SCHOOL","address":"36 PUNGGOL FIELD","postal_code":828814},"geometry":{"type":"Point","coordinates":[103.902302,1.4002145]}},{"type":"Feature","properties":{"all_schools_2016":"ELIAS PARK PRIMARY SCHOOL","address":"11 PASIR RIS STREET 52","postal_code":518866},"geometry":{"type":"Point","coordinates":[103.9452385,1.3749538]}},{"type":"Feature","properties":{"all_schools_2016":"ENDEAVOUR PRIMARY SCHOOL","address":"10 Admiralty Link","postal_code":757521},"geometry":{"type":"Point","coordinates":[103.8171781,1.4545646]}},{"type":"Feature","properties":{"all_schools_2016":"EUNOS PRIMARY SCHOOL","address":"95 JALAN EUNOS Eunos Primary School","postal_code":419529},"geometry":{"type":"Point","coordinates":[103.9043036,1.3245231]}},{"type":"Feature","properties":{"all_schools_2016":"EVERGREEN PRIMARY SCHOOL","address":"31 WOODLANDS CIRCLE","postal_code":738908},"geometry":{"type":"Point","coordinates":[103.7948282,1.443932]}},{"type":"Feature","properties":{"all_schools_2016":"EVERGREEN SECONDARY SCHOOL","address":"11 WOODLANDS STREET 83","postal_code":738489},"geometry":{"type":"Point","coordinates":[103.7936114,1.4415383]}},{"type":"Feature","properties":{"all_schools_2016":"FAIRFIELD METHODIST SCHOOL (PRIMARY)","address":"100 DOVER ROAD","postal_code":139648},"geometry":{"type":"Point","coordinates":[103.7852182,1.300142]}},{"type":"Feature","properties":{"all_schools_2016":"FAIRFIELD METHODIST SCHOOL (SECONDARY)","address":"102 Dover Road Fairfield Methodist Secondary","postal_code":139649},"geometry":{"type":"Point","coordinates":[103.7844805,1.3017827]}},{"type":"Feature","properties":{"all_schools_2016":"FAJAR SECONDARY SCHOOL","address":"58 Chestnut Drive","postal_code":679301},"geometry":{"type":"Point","coordinates":[103.7701935,1.3691491]}},{"type":"Feature","properties":{"all_schools_2016":"FARRER PARK PRIMARY SCHOOL","address":"2 FARRER PARK ROAD","postal_code":217567},"geometry":{"type":"Point","coordinates":[103.8507423,1.3122373]}},{"type":"Feature","properties":{"all_schools_2016":"FENGSHAN PRIMARY SCHOOL","address":"307 BEDOK NORTH ROAD","postal_code":469680},"geometry":{"type":"Point","coordinates":[103.931813,1.330225]}},{"type":"Feature","properties":{"all_schools_2016":"FERNVALE PRIMARY SCHOOL","address":"1 Fernvale Lane","postal_code":797701},"geometry":{"type":"Point","coordinates":[103.873919,1.389948]}},{"type":"Feature","properties":{"all_schools_2016":"FIRST TOA PAYOH PRIMARY SCHOOL","address":"7 LORONG 8 TOA PAYOH","postal_code":319252},"geometry":{"type":"Point","coordinates":[103.8555932,1.3401643]}},{"type":"Feature","properties":{"all_schools_2016":"FRONTIER PRIMARY SCHOOL","address":"20 Jurong West Street 61","postal_code":648200},"geometry":{"type":"Point","coordinates":[103.6997742,1.336843]}},{"type":"Feature","properties":{"all_schools_2016":"FUCHUN PRIMARY SCHOOL","address":"23 WOODLANDS AVENUE 1","postal_code":739063},"geometry":{"type":"Point","coordinates":[103.7780876,1.4302953]}},{"type":"Feature","properties":{"all_schools_2016":"FUCHUN SECONDARY SCHOOL","address":"21 WOODLANDS AVENUE 1","postal_code":739062},"geometry":{"type":"Point","coordinates":[103.777326,1.430948]}},{"type":"Feature","properties":{"all_schools_2016":"FUHUA PRIMARY SCHOOL","address":"65 JURONG EAST STREET 13","postal_code":609647},"geometry":{"type":"Point","coordinates":[103.7372166,1.3363783]}},{"type":"Feature","properties":{"all_schools_2016":"FUHUA SECONDARY SCHOOL","address":"5 JURONG WEST STREET 41","postal_code":649410},"geometry":{"type":"Point","coordinates":[103.7265636,1.347278]}},{"type":"Feature","properties":{"all_schools_2016":"GAN ENG SENG PRIMARY SCHOOL","address":"100 REDHILL CLOSE","postal_code":158901},"geometry":{"type":"Point","coordinates":[103.8152625,1.2857625]}},{"type":"Feature","properties":{"all_schools_2016":"GAN ENG SENG SCHOOL","address":"1 HENDERSON ROAD","postal_code":159561},"geometry":{"type":"Point","coordinates":[103.8237419,1.2894529]}},{"type":"Feature","properties":{"all_schools_2016":"GEYLANG METHODIST SCHOOL (PRIMARY)","address":"4 Geylang East Central","postal_code":389706},"geometry":{"type":"Point","coordinates":[103.88336,1.3182069]}},{"type":"Feature","properties":{"all_schools_2016":"GEYLANG METHODIST SCHOOL (SECONDARY)","address":"2 GEYLANG EAST CENTRAL","postal_code":389705},"geometry":{"type":"Point","coordinates":[103.8826824,1.3176883]}},{"type":"Feature","properties":{"all_schools_2016":"GONGSHANG PRIMARY SCHOOL","address":"1 TAMPINES STREET 42","postal_code":529176},"geometry":{"type":"Point","coordinates":[103.9491666,1.3571755]}},{"type":"Feature","properties":{"all_schools_2016":"GREENDALE PRIMARY SCHOOL","address":"50 Edgedale Plains","postal_code":828848},"geometry":{"type":"Point","coordinates":[103.912588,1.396421]}},{"type":"Feature","properties":{"all_schools_2016":"GREENDALE SECONDARY SCHOOL","address":"51 EDGEDALE PLAINS","postal_code":828866},"geometry":{"type":"Point","coordinates":[103.9117179,1.396986]}},{"type":"Feature","properties":{"all_schools_2016":"GREENRIDGE PRIMARY SCHOOL","address":"11 JELAPANG ROAD","postal_code":677744},"geometry":{"type":"Point","coordinates":[103.7679301,1.3856591]}},{"type":"Feature","properties":{"all_schools_2016":"GREENRIDGE SECONDARY SCHOOL","address":"32 BUKIT PANJANG RING ROAD","postal_code":679938},"geometry":{"type":"Point","coordinates":[103.773836,1.38206]}},{"type":"Feature","properties":{"all_schools_2016":"GREENVIEW SECONDARY SCHOOL","address":"15 PASIR RIS STREET 21","postal_code":518969},"geometry":{"type":"Point","coordinates":[103.9627314,1.3692804]}},{"type":"Feature","properties":{"all_schools_2016":"GREENWOOD PRIMARY SCHOOL","address":"11 WOODLANDS DR 62","postal_code":737942},"geometry":{"type":"Point","coordinates":[103.8047143,1.4400857]}},{"type":"Feature","properties":{"all_schools_2016":"GUANGYANG PRIMARY SCHOOL","address":"6 Bishan Street 12","postal_code":579806},"geometry":{"type":"Point","coordinates":[103.849315,1.345887]}},{"type":"Feature","properties":{"all_schools_2016":"GUANGYANG SECONDARY SCHOOL","address":"8 BISHAN STREET 12","postal_code":579807},"geometry":{"type":"Point","coordinates":[103.850566,1.344693]}},{"type":"Feature","properties":{"all_schools_2016":"HAI SING CATHOLIC SCHOOL","address":"9 PASIR RIS DRIVE 6","postal_code":519421},"geometry":{"type":"Point","coordinates":[103.9548524,1.3744495]}},{"type":"Feature","properties":{"all_schools_2016":"HAIG GIRLS' SCHOOL","address":"860 NEW UPPER CHANGI ROAD","postal_code":467353},"geometry":{"type":"Point","coordinates":[103.9028234,1.3116258]}},{"type":"Feature","properties":{"all_schools_2016":"HENDERSON SECONDARY SCHOOL","address":"100 HENDERSON RD","postal_code":159544},"geometry":{"type":"Point","coordinates":[103.819984,1.2853512]}},{"type":"Feature","properties":{"all_schools_2016":"HENRY PARK PRIMARY SCHOOL","address":"1 HOLLAND GROVE ROAD","postal_code":278790},"geometry":{"type":"Point","coordinates":[103.7841363,1.3167825]}},{"type":"Feature","properties":{"all_schools_2016":"HILLGROVE SECONDARY SCHOOL","address":"10 BUKIT BATOK STREET 52","postal_code":659250},"geometry":{"type":"Point","coordinates":[103.7531743,1.3531321]}},{"type":"Feature","properties":{"all_schools_2016":"HOLY INNOCENTS' HIGH SCHOOL","address":"1191 UPPER SERANGOON ROAD","postal_code":534786},"geometry":{"type":"Point","coordinates":[103.896016,1.3711481]}},{"type":"Feature","properties":{"all_schools_2016":"HOLY INNOCENTS' PRIMARY SCHOOL","address":"5 LORONG LOW KOON Holy Innocents' Primary School","postal_code":536451},"geometry":{"type":"Point","coordinates":[103.8937156,1.3667487]}},{"type":"Feature","properties":{"all_schools_2016":"HONG KAH SECONDARY SCHOOL","address":"931 JURONG WEST STREET 42","postal_code":649370},"geometry":{"type":"Point","coordinates":[103.7271021,1.3521827]}},{"type":"Feature","properties":{"all_schools_2016":"HONG WEN SCHOOL","address":"30 TOWNER ROAD","postal_code":327829},"geometry":{"type":"Point","coordinates":[103.8576625,1.3217339]}},{"type":"Feature","properties":{"all_schools_2016":"HORIZON PRIMARY SCHOOL","address":"61 Edgedale Plains","postal_code":828819},"geometry":{"type":"Point","coordinates":[103.9131302,1.3998175]}},{"type":"Feature","properties":{"all_schools_2016":"HOUGANG PRIMARY SCHOOL","address":"1 HOUGANG ST 93","postal_code":534238},"geometry":{"type":"Point","coordinates":[103.8808703,1.3780264]}},{"type":"Feature","properties":{"all_schools_2016":"HOUGANG SECONDARY SCHOOL","address":"2 HOUGANG STREET 93","postal_code":534256},"geometry":{"type":"Point","coordinates":[103.8821388,1.3775793]}},{"type":"Feature","properties":{"all_schools_2016":"HUA YI SECONDARY SCHOOL","address":"60 JURONG WEST ST 42","postal_code":649371},"geometry":{"type":"Point","coordinates":[103.72158,1.351473]}},{"type":"Feature","properties":{"all_schools_2016":"HUAMIN PRIMARY SCHOOL","address":"21 YISHUN AVENUE 11","postal_code":768857},"geometry":{"type":"Point","coordinates":[103.8442607,1.4270879]}},{"type":"Feature","properties":{"all_schools_2016":"HWA CHONG INSTITUTION","address":"661 BUKIT TIMAH ROAD","postal_code":269734},"geometry":{"type":"Point","coordinates":[103.8061871,1.3252511]}},{"type":"Feature","properties":{"all_schools_2016":"INNOVA JUNIOR COLLEGE","address":"21 Champions Way","postal_code":737902},"geometry":{"type":"Point","coordinates":[103.788341,1.430254]}},{"type":"Feature","properties":{"all_schools_2016":"INNOVA PRIMARY SCHOOL","address":"80 Woodlands Drive 17","postal_code":737888},"geometry":{"type":"Point","coordinates":[103.7904863,1.4292279]}},{"type":"Feature","properties":{"all_schools_2016":"JIEMIN PRIMARY SCHOOL","address":"2 YISHUN STREET 71","postal_code":768515},"geometry":{"type":"Point","coordinates":[103.830498,1.427671]}},{"type":"Feature","properties":{"all_schools_2016":"JING SHAN PRIMARY SCHOOL","address":"5 ANG MO KIO ST 52","postal_code":569228},"geometry":{"type":"Point","coordinates":[103.8517128,1.3723262]}},{"type":"Feature","properties":{"all_schools_2016":"JUNYUAN PRIMARY SCHOOL","address":"2 Tampines Street 91","postal_code":528906},"geometry":{"type":"Point","coordinates":[103.939687,1.3478749]}},{"type":"Feature","properties":{"all_schools_2016":"JUNYUAN SECONDARY SCHOOL","address":"11 TAMPINES STREET 84","postal_code":528933},"geometry":{"type":"Point","coordinates":[103.9335232,1.3533278]}},{"type":"Feature","properties":{"all_schools_2016":"JURONG JUNIOR COLLEGE","address":"800 CORPORATION ROAD","postal_code":649809},"geometry":{"type":"Point","coordinates":[103.713553,1.3510627]}},{"type":"Feature","properties":{"all_schools_2016":"JURONG PRIMARY SCHOOL","address":"320 JURONG EAST Street 32","postal_code":609476},"geometry":{"type":"Point","coordinates":[103.7324372,1.3484018]}},{"type":"Feature","properties":{"all_schools_2016":"JURONG SECONDARY SCHOOL","address":"31 YUAN CHING ROAD","postal_code":618652},"geometry":{"type":"Point","coordinates":[103.724282,1.330365]}},{"type":"Feature","properties":{"all_schools_2016":"JURONG WEST PRIMARY SCHOOL","address":"30 JURONG WEST ST 61","postal_code":648368},"geometry":{"type":"Point","coordinates":[103.6989506,1.3391899]}},{"type":"Feature","properties":{"all_schools_2016":"JURONG WEST SECONDARY SCHOOL","address":"61 JURONG WEST STREET 65","postal_code":648348},"geometry":{"type":"Point","coordinates":[103.7016028,1.3359257]}},{"type":"Feature","properties":{"all_schools_2016":"JURONGVILLE SECONDARY SCHOOL","address":"202 JURONG EAST AVENUE 1","postal_code":609790},"geometry":{"type":"Point","coordinates":[103.7290977,1.3516592]}},{"type":"Feature","properties":{"all_schools_2016":"JUYING PRIMARY SCHOOL","address":"31 JURONG WEST STREET 91","postal_code":649037},"geometry":{"type":"Point","coordinates":[103.6881662,1.3392971]}},{"type":"Feature","properties":{"all_schools_2016":"JUYING SECONDARY SCHOOL","address":"33 JURONG WEST STREET 91","postal_code":649038},"geometry":{"type":"Point","coordinates":[103.6872268,1.3395341]}},{"type":"Feature","properties":{"all_schools_2016":"KEMING PRIMARY SCHOOL","address":"90 BUKIT BATOK EAST AVENUE 6","postal_code":659762},"geometry":{"type":"Point","coordinates":[103.7562455,1.3454147]}},{"type":"Feature","properties":{"all_schools_2016":"KENT RIDGE SECONDARY SCHOOL","address":"147 WEST COAST ROAD","postal_code":127368},"geometry":{"type":"Point","coordinates":[103.7649426,1.3013766]}},{"type":"Feature","properties":{"all_schools_2016":"KHENG CHENG SCHOOL","address":"15 LORONG 3 TOA PAYOH","postal_code":319580},"geometry":{"type":"Point","coordinates":[103.847796,1.337666]}},{"type":"Feature","properties":{"all_schools_2016":"KONG HWA SCHOOL","address":"350 GUILLEMARD ROAD","postal_code":399772},"geometry":{"type":"Point","coordinates":[103.8881775,1.3110886]}},{"type":"Feature","properties":{"all_schools_2016":"KRANJI PRIMARY SCHOOL","address":"11 CHOA CHU KANG STREET 54","postal_code":689189},"geometry":{"type":"Point","coordinates":[103.7472,1.3940679]}},{"type":"Feature","properties":{"all_schools_2016":"KRANJI SECONDARY SCHOOL","address":"61 CHOA CHU KANG STREET 51","postal_code":689333},"geometry":{"type":"Point","coordinates":[103.756524,1.381679]}},{"type":"Feature","properties":{"all_schools_2016":"KUO CHUAN PRESBYTERIAN PRIMARY SCHOOL","address":"8 BISHAN STREET 13","postal_code":579793},"geometry":{"type":"Point","coordinates":[103.854727,1.349116]}},{"type":"Feature","properties":{"all_schools_2016":"KUO CHUAN PRESBYTERIAN SECONDARY SCHOOL","address":"10 BISHAN STREET 13","postal_code":579795},"geometry":{"type":"Point","coordinates":[103.854907,1.350135]}},{"type":"Feature","properties":{"all_schools_2016":"LAKESIDE PRIMARY SCHOOL","address":"161 Corporation Walk","postal_code":618310},"geometry":{"type":"Point","coordinates":[103.718147,1.3384626]}},{"type":"Feature","properties":{"all_schools_2016":"LIANHUA PRIMARY SCHOOL","address":"2 BUKIT BATOK STREET 52","postal_code":659243},"geometry":{"type":"Point","coordinates":[103.7544322,1.3536064]}},{"type":"Feature","properties":{"all_schools_2016":"LOYANG PRIMARY SCHOOL","address":"3 PASIR RIS DRIVE 6","postal_code":519419},"geometry":{"type":"Point","coordinates":[103.95595,1.3709326]}},{"type":"Feature","properties":{"all_schools_2016":"LOYANG SECONDARY SCHOOL","address":"12 PASIR RIS STREET 11","postal_code":519073},"geometry":{"type":"Point","coordinates":[103.957395,1.3664613]}},{"type":"Feature","properties":{"all_schools_2016":"MACPHERSON PRIMARY SCHOOL","address":"2 MATTAR ROAD","postal_code":387724},"geometry":{"type":"Point","coordinates":[103.8816333,1.3247752]}},{"type":"Feature","properties":{"all_schools_2016":"MACPHERSON SECONDARY SCHOOL","address":"121 CIRCUIT ROAD","postal_code":379499},"geometry":{"type":"Point","coordinates":[103.8888672,1.3274711]}},{"type":"Feature","properties":{"all_schools_2016":"MAHA BODHI SCHOOL","address":"10 UBI AVENUE 1","postal_code":408931},"geometry":{"type":"Point","coordinates":[103.9015303,1.3284092]}},{"type":"Feature","properties":{"all_schools_2016":"MANJUSRI SECONDARY SCHOOL","address":"20 UBI AVENUE 1","postal_code":408940},"geometry":{"type":"Point","coordinates":[103.9013422,1.3274138]}},{"type":"Feature","properties":{"all_schools_2016":"MARIS STELLA HIGH SCHOOL","address":"25 MOUNT VERNON ROAD","postal_code":368051},"geometry":{"type":"Point","coordinates":[103.878278,1.34224]}},{"type":"Feature","properties":{"all_schools_2016":"MARSILING PRIMARY SCHOOL","address":"31 WOODLANDS CENTRE ROAD","postal_code":738927},"geometry":{"type":"Point","coordinates":[103.7729776,1.434119]}},{"type":"Feature","properties":{"all_schools_2016":"MARSILING SECONDARY SCHOOL","address":"12 MARSILING ROAD","postal_code":739110},"geometry":{"type":"Point","coordinates":[103.7763391,1.4386007]}},{"type":"Feature","properties":{"all_schools_2016":"MARYMOUNT CONVENT SCHOOL","address":"430 Lorong 1 Toa Payoh","postal_code":319759},"geometry":{"type":"Point","coordinates":[103.843209,1.340196]}},{"type":"Feature","properties":{"all_schools_2016":"MAYFLOWER PRIMARY SCHOOL","address":"200 ANG MO KIO AVE 5","postal_code":569878},"geometry":{"type":"Point","coordinates":[103.8432028,1.3766349]}},{"type":"Feature","properties":{"all_schools_2016":"MAYFLOWER SECONDARY SCHOOL","address":"2 ANG MO KIO STREET 21","postal_code":569384},"geometry":{"type":"Point","coordinates":[103.8352119,1.3686252]}},{"type":"Feature","properties":{"all_schools_2016":"MEE TOH SCHOOL","address":"21 EDGEDALE PLAINS","postal_code":828867},"geometry":{"type":"Point","coordinates":[103.9089333,1.3947729]}},{"type":"Feature","properties":{"all_schools_2016":"MERIDIAN JUNIOR COLLEGE","address":"21 Pasir Ris Street 71","postal_code":518799},"geometry":{"type":"Point","coordinates":[103.9372655,1.3766539]}},{"type":"Feature","properties":{"all_schools_2016":"MERIDIAN PRIMARY SCHOOL","address":"20 PASIR RIS ST 71","postal_code":518798},"geometry":{"type":"Point","coordinates":[103.9350488,1.376032]}},{"type":"Feature","properties":{"all_schools_2016":"METHODIST GIRLS' SCHOOL (PRIMARY)","address":"11 Blackmore Drive","postal_code":599986},"geometry":{"type":"Point","coordinates":[103.7834119,1.332891]}},{"type":"Feature","properties":{"all_schools_2016":"METHODIST GIRLS' SCHOOL (SECONDARY)","address":"11 BLACKMORE DRIVE","postal_code":599986},"geometry":{"type":"Point","coordinates":[103.7834119,1.332891]}},{"type":"Feature","properties":{"all_schools_2016":"MILLENNIA INSTITUTE","address":"60 Bukit Batok West Avenue 8","postal_code":658965},"geometry":{"type":"Point","coordinates":[103.741407,1.3510022]}},{"type":"Feature","properties":{"all_schools_2016":"MONTFORT JUNIOR SCHOOL","address":"52 HOUGANG AVENUE 8","postal_code":538786},"geometry":{"type":"Point","coordinates":[103.889614,1.373864]}},{"type":"Feature","properties":{"all_schools_2016":"MONTFORT SECONDARY SCHOOL","address":"50 HOUGANG AVENUE 8","postal_code":538785},"geometry":{"type":"Point","coordinates":[103.888829,1.374084]}},{"type":"Feature","properties":{"all_schools_2016":"NAN CHIAU HIGH SCHOOL","address":"20 ANCHORVALE LINK","postal_code":545079},"geometry":{"type":"Point","coordinates":[103.88913,1.389345]}},{"type":"Feature","properties":{"all_schools_2016":"NAN CHIAU PRIMARY SCHOOL","address":"50 ANCHORVALE LINK","postal_code":545080},"geometry":{"type":"Point","coordinates":[103.8909245,1.3920784]}},{"type":"Feature","properties":{"all_schools_2016":"NAN HUA HIGH SCHOOL","address":"41 CLEMENTI AVENUE 1","postal_code":129956},"geometry":{"type":"Point","coordinates":[103.7689246,1.3083739]}},{"type":"Feature","properties":{"all_schools_2016":"NAN HUA PRIMARY SCHOOL","address":"30 JALAN LEMPENG","postal_code":128806},"geometry":{"type":"Point","coordinates":[103.7615069,1.319611]}},{"type":"Feature","properties":{"all_schools_2016":"NANYANG GIRLS' HIGH SCHOOL","address":"2 LINDEN DRIVE","postal_code":288683},"geometry":{"type":"Point","coordinates":[103.8023527,1.3305269]}},{"type":"Feature","properties":{"all_schools_2016":"NANYANG JUNIOR COLLEGE","address":"128 SERANGOON AVENUE 3","postal_code":556111},"geometry":{"type":"Point","coordinates":[103.866508,1.3502911]}},{"type":"Feature","properties":{"all_schools_2016":"NANYANG PRIMARY SCHOOL","address":"52 KING'S ROAD","postal_code":268097},"geometry":{"type":"Point","coordinates":[103.8077117,1.3210855]}},{"type":"Feature","properties":{"all_schools_2016":"NATIONAL JUNIOR COLLEGE","address":"37 HILLCREST ROAD","postal_code":288913},"geometry":{"type":"Point","coordinates":[103.8045,1.330476]}},{"type":"Feature","properties":{"all_schools_2016":"NAVAL BASE PRIMARY SCHOOL","address":"7 YISHUN AVE 4","postal_code":769028},"geometry":{"type":"Point","coordinates":[103.8390841,1.4161125]}},{"type":"Feature","properties":{"all_schools_2016":"NAVAL BASE SECONDARY SCHOOL","address":"901 YISHUN RING ROAD","postal_code":768689},"geometry":{"type":"Point","coordinates":[103.8306832,1.4189428]}},{"type":"Feature","properties":{"all_schools_2016":"NEW TOWN PRIMARY SCHOOL","address":"300 Tanglin Halt Road","postal_code":148812},"geometry":{"type":"Point","coordinates":[103.8000727,1.3000104]}},{"type":"Feature","properties":{"all_schools_2016":"NEW TOWN SECONDARY SCHOOL","address":"1020 DOVER ROAD","postal_code":139657},"geometry":{"type":"Point","coordinates":[103.7731811,1.3100381]}},{"type":"Feature","properties":{"all_schools_2016":"NGEE ANN PRIMARY SCHOOL","address":"344 MARINE TERRACE","postal_code":449149},"geometry":{"type":"Point","coordinates":[103.9180054,1.3056219]}},{"type":"Feature","properties":{"all_schools_2016":"NGEE ANN SECONDARY SCHOOL","address":"1 TAMPINES STREET 32","postal_code":529283},"geometry":{"type":"Point","coordinates":[103.9568201,1.3542893]}},{"type":"Feature","properties":{"all_schools_2016":"NORTH SPRING PRIMARY SCHOOL","address":"1 RIVERVALE STREET","postal_code":545088},"geometry":{"type":"Point","coordinates":[103.903609,1.386881]}},{"type":"Feature","properties":{"all_schools_2016":"NORTH VIEW PRIMARY SCHOOL","address":"210 YISHUN AVENUE 6","postal_code":768960},"geometry":{"type":"Point","coordinates":[103.848313,1.427616]}},{"type":"Feature","properties":{"all_schools_2016":"NORTH VIEW SECONDARY SCHOOL","address":"530 YISHUN RING ROAD","postal_code":768680},"geometry":{"type":"Point","coordinates":[103.8447077,1.4279059]}},{"type":"Feature","properties":{"all_schools_2016":"NORTH VISTA PRIMARY SCHOOL","address":"20 Compassvale Link","postal_code":544974},"geometry":{"type":"Point","coordinates":[103.8960931,1.3829181]}},{"type":"Feature","properties":{"all_schools_2016":"NORTH VISTA SECONDARY SCHOOL","address":"11 RIVERVALE LINK","postal_code":545081},"geometry":{"type":"Point","coordinates":[103.8990751,1.38121]}},{"type":"Feature","properties":{"all_schools_2016":"NORTHBROOKS SECONDARY SCHOOL","address":"585 YISHUN RING ROAD","postal_code":768692},"geometry":{"type":"Point","coordinates":[103.8451553,1.4212061]}},{"type":"Feature","properties":{"all_schools_2016":"NORTHLAND PRIMARY SCHOOL","address":"15 YISHUN AVENUE 4","postal_code":769026},"geometry":{"type":"Point","coordinates":[103.840576,1.421155]}},{"type":"Feature","properties":{"all_schools_2016":"NORTHLAND SECONDARY SCHOOL","address":"3 YISHUN STREET 22","postal_code":768578},"geometry":{"type":"Point","coordinates":[103.8401937,1.4358326]}},{"type":"Feature","properties":{"all_schools_2016":"NORTHLIGHT SCHOOL","address":"151 Towner Road","postal_code":327830},"geometry":{"type":"Point","coordinates":[103.855659,1.3199647]}},{"type":"Feature","properties":{"all_schools_2016":"NORTHOAKS PRIMARY SCHOOL","address":"61 Sembawang Drive","postal_code":757622},"geometry":{"type":"Point","coordinates":[103.813826,1.456638]}},{"type":"Feature","properties":{"all_schools_2016":"NUS HIGH SCHOOL OF MATHEMATICS AND SCIENCE","address":"20 Clementi Avenue 1","postal_code":129957},"geometry":{"type":"Point","coordinates":[103.7691124,1.3071179]}},{"type":"Feature","properties":{"all_schools_2016":"OASIS PRIMARY SCHOOL","address":"71 Edgefield Plains","postal_code":828716},"geometry":{"type":"Point","coordinates":[103.9109619,1.404288]}},{"type":"Feature","properties":{"all_schools_2016":"OPERA ESTATE PRIMARY SCHOOL","address":"48 FIDELIO STREET","postal_code":458436},"geometry":{"type":"Point","coordinates":[103.9242207,1.3193649]}},{"type":"Feature","properties":{"all_schools_2016":"ORCHID PARK SECONDARY SCHOOL","address":"10 YISHUN STREET 81","postal_code":768454},"geometry":{"type":"Point","coordinates":[103.8380899,1.4156038]}},{"type":"Feature","properties":{"all_schools_2016":"OUTRAM SECONDARY SCHOOL","address":"3 YORK HILL","postal_code":168622},"geometry":{"type":"Point","coordinates":[103.837091,1.286507]}},{"type":"Feature","properties":{"all_schools_2016":"OPERA ESTATE PRIMARY SCHOOL","address":"48 FIDELIO STREET","postal_code":458436},"geometry":{"type":"Point","coordinates":[103.9242207,1.3193649]}},{"type":"Feature","properties":{"all_schools_2016":"ORCHID PARK SECONDARY SCHOOL","address":"10 YISHUN STREET 81","postal_code":768454},"geometry":{"type":"Point","coordinates":[103.8380899,1.4156038]}},{"type":"Feature","properties":{"all_schools_2016":"PALM VIEW PRIMARY SCHOOL","address":"150 Compassvale Bow","postal_code":544822},"geometry":{"type":"Point","coordinates":[103.8910747,1.384006]}},{"type":"Feature","properties":{"all_schools_2016":"PASIR RIS PRIMARY SCHOOL","address":"5 PASIR RIS STREET 21","postal_code":518968},"geometry":{"type":"Point","coordinates":[103.9628003,1.3722117]}},{"type":"Feature","properties":{"all_schools_2016":"PASIR RIS CREST SECONDARY SCHOOL","address":"11 PASIR RIS STREET 41","postal_code":518934},"geometry":{"type":"Point","coordinates":[103.9594764,1.3728674]}},{"type":"Feature","properties":{"all_schools_2016":"PARK VIEW PRIMARY SCHOOL","address":"60 PASIR RIS DRIVE 1","postal_code":519524},"geometry":{"type":"Point","coordinates":[103.9395261,1.3777046]}},{"type":"Feature","properties":{"all_schools_2016":"PASIR RIS SECONDARY SCHOOL","address":"390 TAMPINES STREET 21","postal_code":529400},"geometry":{"type":"Point","coordinates":[103.948533,1.354757]}},{"type":"Feature","properties":{"all_schools_2016":"PAYA LEBAR METHODIST GIRLS' SCHOOL (PRIMARY)","address":"298 LORONG AH SOO","postal_code":536741},"geometry":{"type":"Point","coordinates":[103.8852195,1.3504619]}},{"type":"Feature","properties":{"all_schools_2016":"PAYA LEBAR METHODIST GIRLS' SCHOOL (SECONDARY)","address":"296 LOR AH SOO","postal_code":536742},"geometry":{"type":"Point","coordinates":[103.885541,1.350806]}},{"type":"Feature","properties":{"all_schools_2016":"PEI CHUN PUBLIC SCHOOL","address":"16 TOA PAYOH LORONG 7","postal_code":319320},"geometry":{"type":"Point","coordinates":[103.8589626,1.3332385]}},{"type":"Feature","properties":{"all_schools_2016":"PEI HWA PRESBYTERIAN PRIMARY SCHOOL","address":"7 PEI WAH AVENUE","postal_code":597610},"geometry":{"type":"Point","coordinates":[103.77613,1.338081]}},{"type":"Feature","properties":{"all_schools_2016":"PEI HWA SECONDARY SCHOOL","address":"21 FERNVALE LINK","postal_code":797702},"geometry":{"type":"Point","coordinates":[103.8784603,1.3906452]}},{"type":"Feature","properties":{"all_schools_2016":"PEI TONG PRIMARY SCHOOL","address":"15 CLEMENTI AVENUE 5","postal_code":129857},"geometry":{"type":"Point","coordinates":[103.7675906,1.3161197]}},{"type":"Feature","properties":{"all_schools_2016":"PEICAI SECONDARY SCHOOL","address":"10 SERANGOON AVENUE 4","postal_code":556094},"geometry":{"type":"Point","coordinates":[103.8704861,1.3593733]}},{"type":"Feature","properties":{"all_schools_2016":"PEIRCE SECONDARY SCHOOL","address":"10 SIN MING WALK","postal_code":575566},"geometry":{"type":"Point","coordinates":[103.8298057,1.3662806]}},{"type":"Feature","properties":{"all_schools_2016":"PEIYING PRIMARY SCHOOL","address":"651 YISHUN RING ROAD","postal_code":768687},"geometry":{"type":"Point","coordinates":[103.8302639,1.4175245]}},{"type":"Feature","properties":{"all_schools_2016":"PING YI SECONDARY SCHOOL","address":"61 CHAI CHEE STREET","postal_code":468980},"geometry":{"type":"Point","coordinates":[103.920663,1.326674]}},{"type":"Feature","properties":{"all_schools_2016":"PIONEER JUNIOR COLLEGE","address":"21 Teck Whye Walk","postal_code":688258},"geometry":{"type":"Point","coordinates":[103.753951,1.384627]}},{"type":"Feature","properties":{"all_schools_2016":"PIONEER PRIMARY SCHOOL","address":"23 JURONG WEST STREET 81","postal_code":649076},"geometry":{"type":"Point","coordinates":[103.6955802,1.3486615]}},{"type":"Feature","properties":{"all_schools_2016":"PIONEER SECONDARY SCHOOL","address":"21 JURONG WEST STREET 81","postal_code":649075},"geometry":{"type":"Point","coordinates":[103.695085,1.347457]}},{"type":"Feature","properties":{"all_schools_2016":"POI CHING SCHOOL","address":"21 TAMPINES STREET 71","postal_code":529067},"geometry":{"type":"Point","coordinates":[103.9352454,1.3577836]}},{"type":"Feature","properties":{"all_schools_2016":"PRESBYTERIAN HIGH SCHOOL","address":"5209 ANG MO KIO AVENUE 6","postal_code":569845},"geometry":{"type":"Point","coordinates":[103.8431,1.382254]}},{"type":"Feature","properties":{"all_schools_2016":"PRINCESS ELIZABETH PRIMARY SCHOOL","address":"30 BUKIT BATOK WEST AVENUE 3","postal_code":659163},"geometry":{"type":"Point","coordinates":[103.74102,1.349481]}},{"type":"Feature","properties":{"all_schools_2016":"PUNGGOL COVE PRIMARY SCHOOL","address":"52 Sumang Walk","postal_code":828674},"geometry":{"type":"Point","coordinates":[103.8985828,1.4122254]}},{"type":"Feature","properties":{"all_schools_2016":"PUNGGOL GREEN PRIMARY SCHOOL","address":"98 Punggol Walk","postal_code":828772},"geometry":{"type":"Point","coordinates":[103.8988531,1.4018544]}},{"type":"Feature","properties":{"all_schools_2016":"PUNGGOL PRIMARY SCHOOL","address":"61 HOUGANG AVENUE 8","postal_code":538787},"geometry":{"type":"Point","coordinates":[103.8948006,1.3772032]}},{"type":"Feature","properties":{"all_schools_2016":"PUNGGOL SECONDARY SCHOOL","address":"51 EDGEFIELD PLAINS","postal_code":828870},"geometry":{"type":"Point","coordinates":[103.9091383,1.4026867]}},{"type":"Feature","properties":{"all_schools_2016":"PUNGGOL VIEW PRIMARY SCHOOL","address":"9 Punggol Place","postal_code":828845},"geometry":{"type":"Point","coordinates":[103.9051799,1.4052956]}},{"type":"Feature","properties":{"all_schools_2016":"QIFA PRIMARY SCHOOL","address":"50 WEST COAST AVENUE","postal_code":128104},"geometry":{"type":"Point","coordinates":[103.7568857,1.3126176]}},{"type":"Feature","properties":{"all_schools_2016":"QIHUA PRIMARY SCHOOL","address":"5 WOODLANDS STREET 81","postal_code":738525},"geometry":{"type":"Point","coordinates":[103.7889459,1.442346]}},{"type":"Feature","properties":{"all_schools_2016":"QUEENSTOWN PRIMARY SCHOOL","address":"310 MARGARET DR","postal_code":149303},"geometry":{"type":"Point","coordinates":[103.8078866,1.2968505]}},{"type":"Feature","properties":{"all_schools_2016":"QUEENSTOWN SECONDARY SCHOOL","address":"1 STRATHMORE ROAD","postal_code":148800},"geometry":{"type":"Point","coordinates":[103.8131968,1.2937571]}},{"type":"Feature","properties":{"all_schools_2016":"QUEENSWAY SECONDARY SCHOOL","address":"2A MARGARET DRIVE","postal_code":149295},"geometry":{"type":"Point","coordinates":[103.8020849,1.3004684]}},{"type":"Feature","properties":{"all_schools_2016":"RADIN MAS PRIMARY SCHOOL","address":"1 BUKIT PURMEI AVENUE","postal_code":99840},"geometry":{"type":"Point","coordinates":[103.8238799,1.2750693]}},{"type":"Feature","properties":{"all_schools_2016":"RAFFLES GIRLS' PRIMARY SCHOOL","address":"21 Hillcrest Road","postal_code":289072},"geometry":{"type":"Point","coordinates":[103.8067868,1.3302628]}},{"type":"Feature","properties":{"all_schools_2016":"RAFFLES GIRLS' SCHOOL (SECONDARY)","address":"20 ANDERSON ROAD","postal_code":259978},"geometry":{"type":"Point","coordinates":[103.8287358,1.311665]}},{"type":"Feature","properties":{"all_schools_2016":"RAFFLES INSTITUTION","address":"1 RAFFLES INSTITUTION LANE","postal_code":575954},"geometry":{"type":"Point","coordinates":[103.843607,1.346452]}},{"type":"Feature","properties":{"all_schools_2016":"RED SWASTIKA SCHOOL","address":"350 BEDOK NORTH AVENUE 3","postal_code":469719},"geometry":{"type":"Point","coordinates":[103.9346109,1.3332677]}},{"type":"Feature","properties":{"all_schools_2016":"REGENT SECONDARY SCHOOL","address":"50 CHOA CHU KANG NORTH 5","postal_code":689621},"geometry":{"type":"Point","coordinates":[103.7510018,1.3936053]}},{"type":"Feature","properties":{"all_schools_2016":"RIVER VALLEY HIGH SCHOOL","address":"6 BOON LAY AVENUE","postal_code":649961},"geometry":{"type":"Point","coordinates":[103.70949,1.343172]}},{"type":"Feature","properties":{"all_schools_2016":"RIVER VALLEY PRIMARY SCHOOL","address":"2 RIVER VALLEY GREEN","postal_code":237993},"geometry":{"type":"Point","coordinates":[103.8363894,1.2938838]}},{"type":"Feature","properties":{"all_schools_2016":"RIVERSIDE PRIMARY SCHOOL","address":"110 Woodlands Crescent","postal_code":737803},"geometry":{"type":"Point","coordinates":[103.8017893,1.447201]}},{"type":"Feature","properties":{"all_schools_2016":"RIVERSIDE SECONDARY SCHOOL","address":"3 WOODLANDS STREET 81","postal_code":738524},"geometry":{"type":"Point","coordinates":[103.788591,1.4404834]}},{"type":"Feature","properties":{"all_schools_2016":"RIVERVALE PRIMARY SCHOOL","address":"80 RIVERVALE DRIVE","postal_code":545092},"geometry":{"type":"Point","coordinates":[103.9044349,1.3932862]}},{"type":"Feature","properties":{"all_schools_2016":"ROSYTH SCHOOL","address":"21 Serangoon North Avenue 4","postal_code":555855},"geometry":{"type":"Point","coordinates":[103.874791,1.372862]}},{"type":"Feature","properties":{"all_schools_2016":"RULANG PRIMARY SCHOOL","address":"6 JURONG WEST STREET 52","postal_code":649295},"geometry":{"type":"Point","coordinates":[103.71896,1.34694]}},{"type":"Feature","properties":{"all_schools_2016":"SCHOOL OF SCIENCE AND TECHNOLOGY, SINGAPORE","address":"1 Technology Drive","postal_code":138572},"geometry":{"type":"Point","coordinates":[103.7743443,1.3132014]}},{"type":"Feature","properties":{"all_schools_2016":"SCHOOL OF THE ARTS, SINGAPORE","address":"01 05 1 Zubir Said Drive Admin Office","postal_code":227968},"geometry":{"type":"Point","coordinates":[103.8488515,1.2994525]}},{"type":"Feature","properties":{"all_schools_2016":"SEMBAWANG PRIMARY SCHOOL","address":"10 SEMBAWANG DRIVE","postal_code":757715},"geometry":{"type":"Point","coordinates":[103.8210452,1.4453649]}},{"type":"Feature","properties":{"all_schools_2016":"SEMBAWANG SECONDARY SCHOOL","address":"30 SEMBAWANG CRESCENT","postal_code":757704},"geometry":{"type":"Point","coordinates":[103.8169015,1.4455764]}},{"type":"Feature","properties":{"all_schools_2016":"SENG KANG PRIMARY SCHOOL","address":"21 COMPASSVALE WALK","postal_code":545166},"geometry":{"type":"Point","coordinates":[103.8998085,1.3894174]}},{"type":"Feature","properties":{"all_schools_2016":"SENG KANG SECONDARY SCHOOL","address":"10 COMPASSVALE LANE","postal_code":545090},"geometry":{"type":"Point","coordinates":[103.8983495,1.3862154]}},{"type":"Feature","properties":{"all_schools_2016":"SENGKANG GREEN PRIMARY SCHOOL","address":"15 Fernvale Road","postal_code":797636},"geometry":{"type":"Point","coordinates":[103.8751169,1.3925337]}},{"type":"Feature","properties":{"all_schools_2016":"SERANGOON GARDEN SECONDARY SCHOOL","address":"21 SERANGOON NORTH AVENUE 1","postal_code":555889},"geometry":{"type":"Point","coordinates":[103.8689858,1.3697258]}},{"type":"Feature","properties":{"all_schools_2016":"SERANGOON JUNIOR COLLEGE","address":"1033 UPPER SERANGOON ROAD","postal_code":534768},"geometry":{"type":"Point","coordinates":[103.886996,1.365172]}},{"type":"Feature","properties":{"all_schools_2016":"SERANGOON SECONDARY SCHOOL","address":"11 UPPER SERANGOON VIEW","postal_code":534237},"geometry":{"type":"Point","coordinates":[103.9022635,1.3748927]}},{"type":"Feature","properties":{"all_schools_2016":"SHUQUN PRIMARY SCHOOL","address":"8 JURONG WEST STREET 51","postal_code":649332},"geometry":{"type":"Point","coordinates":[103.7215376,1.3471816]}},{"type":"Feature","properties":{"all_schools_2016":"SHUQUN SECONDARY SCHOOL","address":"450 JURONG EAST STREET 21","postal_code":609604},"geometry":{"type":"Point","coordinates":[103.739469,1.340338]}},{"type":"Feature","properties":{"all_schools_2016":"SI LING PRIMARY SCHOOL","address":"61 WOODLANDS AVENUE 1","postal_code":739067},"geometry":{"type":"Point","coordinates":[103.78577,1.432693]}},{"type":"Feature","properties":{"all_schools_2016":"SI LING SECONDARY SCHOOL","address":"11 MARSILING LANE","postal_code":739148},"geometry":{"type":"Point","coordinates":[103.7748043,1.4450999]}},{"type":"Feature","properties":{"all_schools_2016":"SIGLAP SECONDARY SCHOOL","address":"10 PASIR RIS DRIVE 10","postal_code":519385},"geometry":{"type":"Point","coordinates":[103.9387841,1.3800274]}},{"type":"Feature","properties":{"all_schools_2016":"SINGAPORE CHINESE GIRLS' PRIMARY SCHOOL","address":"190 DUNEARN ROAD","postal_code":309437},"geometry":{"type":"Point","coordinates":[103.8285877,1.3206794]}},{"type":"Feature","properties":{"all_schools_2016":"SINGAPORE CHINESE GIRLS' SCHOOL","address":"190 DUNEARN ROAD","postal_code":309437},"geometry":{"type":"Point","coordinates":[103.8285877,1.3206794]}},{"type":"Feature","properties":{"all_schools_2016":"SINGAPORE SPORTS SCHOOL","address":"1 Champions Way","postal_code":737913},"geometry":{"type":"Point","coordinates":[103.789056,1.426703]}},{"type":"Feature","properties":{"all_schools_2016":"SOUTH VIEW PRIMARY SCHOOL","address":"6 Choa Chu Kang Central","postal_code":689762},"geometry":{"type":"Point","coordinates":[103.7471451,1.381324]}},{"type":"Feature","properties":{"all_schools_2016":"SPECTRA SECONDARY SCHOOL","address":"1 WOODLANDS DRIVE 64","postal_code":737758},"geometry":{"type":"Point","coordinates":[103.8043528,1.4364631]}},{"type":"Feature","properties":{"all_schools_2016":"SPRINGDALE PRIMARY SCHOOL","address":"71 Anchorvale Link","postal_code":544799},"geometry":{"type":"Point","coordinates":[103.8901125,1.3951189]}},{"type":"Feature","properties":{"all_schools_2016":"SPRINGFIELD SECONDARY SCHOOL","address":"30 TAMPINES AVENUE 8","postal_code":529593},"geometry":{"type":"Point","coordinates":[103.9300788,1.3498342]}},{"type":"Feature","properties":{"all_schools_2016":"ST. ANDREW'S JUNIOR COLLEGE","address":"5 Sorby Adams Drive","postal_code":357691},"geometry":{"type":"Point","coordinates":[103.8631086,1.3337729]}},{"type":"Feature","properties":{"all_schools_2016":"ST. ANDREW'S JUNIOR SCHOOL","address":"2 FRANCIS THOMAS DRIVE","postal_code":359337},"geometry":{"type":"Point","coordinates":[103.8650358,1.3314591]}},{"type":"Feature","properties":{"all_schools_2016":"ST. ANDREW'S SECONDARY SCHOOL","address":"15 FRANCIS THOMAS DRIVE","postal_code":359342},"geometry":{"type":"Point","coordinates":[103.8661898,1.3312299]}},{"type":"Feature","properties":{"all_schools_2016":"ST. ANTHONY'S CANOSSIAN PRIMARY SCHOOL","address":"1602 BEDOK NORTH AVE 4","postal_code":469701},"geometry":{"type":"Point","coordinates":[103.941092,1.334293]}},{"type":"Feature","properties":{"all_schools_2016":"ST. ANTHONY'S CANOSSIAN SECONDARY SCHOOL","address":"1600 BEDOK NORTH AVENUE 4","postal_code":469700},"geometry":{"type":"Point","coordinates":[103.9413752,1.3348576]}},{"type":"Feature","properties":{"all_schools_2016":"ST. ANTHONY'S PRIMARY SCHOOL","address":"30 Bukit Batok St 32","postal_code":659401},"geometry":{"type":"Point","coordinates":[103.7492288,1.3644907]}},{"type":"Feature","properties":{"all_schools_2016":"ST. GABRIEL'S PRIMARY SCHOOL","address":"220 Lorong Chuan","postal_code":556742},"geometry":{"type":"Point","coordinates":[103.8622971,1.3493505]}},{"type":"Feature","properties":{"all_schools_2016":"ST. GABRIEL'S SECONDARY SCHOOL","address":"24 SERANGOON AVENUE 1","postal_code":556140},"geometry":{"type":"Point","coordinates":[103.8757594,1.3467554]}},{"type":"Feature","properties":{"all_schools_2016":"ST. HILDA'S PRIMARY SCHOOL","address":"2 Tampines Ave 3","postal_code":529706},"geometry":{"type":"Point","coordinates":[103.9361065,1.3496891]}},{"type":"Feature","properties":{"all_schools_2016":"ST. HILDA'S SECONDARY SCHOOL","address":"2 TAMPINES STREET 82","postal_code":528986},"geometry":{"type":"Point","coordinates":[103.936745,1.3503799]}},{"type":"Feature","properties":{"all_schools_2016":"ST. JOSEPH'S INSTITUTION","address":"21 BISHAN STREET 14","postal_code":579781},"geometry":{"type":"Point","coordinates":[103.853082,1.3512439]}},{"type":"Feature","properties":{"all_schools_2016":"ST. JOSEPH'S INSTITUTION JUNIOR","address":"3 ESSEX ROAD","postal_code":309331},"geometry":{"type":"Point","coordinates":[103.8458195,1.317796]}},{"type":"Feature","properties":{"all_schools_2016":"ST. MARGARET'S PRIMARY SCHOOL","address":"99 WILKIE ROAD","postal_code":228091},"geometry":{"type":"Point","coordinates":[103.845851,1.304444]}},{"type":"Feature","properties":{"all_schools_2016":"ST. MARGARET'S SECONDARY SCHOOL","address":"111 FARRER ROAD","postal_code":259240},"geometry":{"type":"Point","coordinates":[103.809466,1.320091]}},{"type":"Feature","properties":{"all_schools_2016":"ST. PATRICK'S SCHOOL","address":"490 EAST COAST ROAD","postal_code":429058},"geometry":{"type":"Point","coordinates":[103.916644,1.3092299]}},{"type":"Feature","properties":{"all_schools_2016":"ST. STEPHEN'S SCHOOL","address":"20 SIGLAP VIEW","postal_code":455789},"geometry":{"type":"Point","coordinates":[103.917604,1.3190059]}},{"type":"Feature","properties":{"all_schools_2016":"STAMFORD PRIMARY SCHOOL","address":"1 VICTORIA LANE","postal_code":198423},"geometry":{"type":"Point","coordinates":[103.8570802,1.3039487]}},{"type":"Feature","properties":{"all_schools_2016":"SWISS COTTAGE SECONDARY SCHOOL","address":"3 BUKIT BATOK STREET 34","postal_code":659322},"geometry":{"type":"Point","coordinates":[103.75064,1.36469]}},{"type":"Feature","properties":{"all_schools_2016":"TAMPINES JUNIOR COLLEGE","address":"2 TAMPINES AVENUE 9","postal_code":529564},"geometry":{"type":"Point","coordinates":[103.955857,1.357607]}},{"type":"Feature","properties":{"all_schools_2016":"TAMPINES NORTH PRIMARY SCHOOL","address":"30 TAMPINES AVENUE 9","postal_code":529565},"geometry":{"type":"Point","coordinates":[103.948581,1.360298]}},{"type":"Feature","properties":{"all_schools_2016":"TAMPINES PRIMARY SCHOOL","address":"250 TAMPINES STREET 12","postal_code":529426},"geometry":{"type":"Point","coordinates":[103.9441287,1.3499716]}},{"type":"Feature","properties":{"all_schools_2016":"TAMPINES SECONDARY SCHOOL","address":"252 TAMPINES ST 12","postal_code":529427},"geometry":{"type":"Point","coordinates":[103.9445009,1.3493258]}},{"type":"Feature","properties":{"all_schools_2016":"TANGLIN SECONDARY SCHOOL","address":"301 WEST COAST ROAD","postal_code":127391},"geometry":{"type":"Point","coordinates":[103.7581468,1.3097054]}},{"type":"Feature","properties":{"all_schools_2016":"TANJONG KATONG GIRLS' SCHOOL","address":"20 DUNMAN LANE","postal_code":439272},"geometry":{"type":"Point","coordinates":[103.9267853,1.3223317]}},{"type":"Feature","properties":{"all_schools_2016":"TANJONG KATONG PRIMARY SCHOOL","address":"10 SERAYA ROAD","postal_code":437259},"geometry":{"type":"Point","coordinates":[103.900494,1.3053282]}},{"type":"Feature","properties":{"all_schools_2016":"TANJONG KATONG SECONDARY SCHOOL","address":"130 HAIG ROAD","postal_code":438796},"geometry":{"type":"Point","coordinates":[103.897576,1.3083201]}},{"type":"Feature","properties":{"all_schools_2016":"TAO NAN SCHOOL","address":"49 MARINE CRESCENT","postal_code":449761},"geometry":{"type":"Point","coordinates":[103.911434,1.3049059]}},{"type":"Feature","properties":{"all_schools_2016":"TECK GHEE PRIMARY SCHOOL","address":"1 ANG MO KIO STREET 32","postal_code":569299},"geometry":{"type":"Point","coordinates":[103.8505239,1.365396]}},{"type":"Feature","properties":{"all_schools_2016":"TECK WHYE PRIMARY SCHOOL","address":"11 TECK WHYE WALK","postal_code":688261},"geometry":{"type":"Point","coordinates":[103.7537174,1.3837636]}},{"type":"Feature","properties":{"all_schools_2016":"TECK WHYE SECONDARY SCHOOL","address":"31 TECK WHYE CRESCENT","postal_code":688848},"geometry":{"type":"Point","coordinates":[103.7551658,1.3831686]}},{"type":"Feature","properties":{"all_schools_2016":"TELOK KURAU PRIMARY SCHOOL","address":"50 BEDOK RESERVOIR RD","postal_code":479239},"geometry":{"type":"Point","coordinates":[103.911406,1.3308237]}},{"type":"Feature","properties":{"all_schools_2016":"TEMASEK JUNIOR COLLEGE","address":"22 BEDOK SOUTH ROAD","postal_code":469278},"geometry":{"type":"Point","coordinates":[103.9355401,1.3185603]}},{"type":"Feature","properties":{"all_schools_2016":"TEMASEK PRIMARY SCHOOL","address":"501 BEDOK SOUTH AVE 3","postal_code":469300},"geometry":{"type":"Point","coordinates":[103.945488,1.317502]}},{"type":"Feature","properties":{"all_schools_2016":"TEMASEK SECONDARY SCHOOL","address":"600 UPPER EAST COAST ROAD","postal_code":465561},"geometry":{"type":"Point","coordinates":[103.9470222,1.3162068]}},{"type":"Feature","properties":{"all_schools_2016":"TOWNSVILLE PRIMARY SCHOOL","address":"3 ANG MO KIO AVE 10","postal_code":569730},"geometry":{"type":"Point","coordinates":[103.8537829,1.3600534]}},{"type":"Feature","properties":{"all_schools_2016":"UNITY PRIMARY SCHOOL","address":"21 CHOA CHU KANG CRESCENT","postal_code":688268},"geometry":{"type":"Point","coordinates":[103.74729,1.403245]}},{"type":"Feature","properties":{"all_schools_2016":"UNITY SECONDARY SCHOOL","address":"20 CHOA CHU KANG STREET 62","postal_code":689143},"geometry":{"type":"Point","coordinates":[103.7459328,1.3995027]}},{"type":"Feature","properties":{"all_schools_2016":"VICTORIA JUNIOR COLLEGE","address":"20 MARINE VISTA","postal_code":449035},"geometry":{"type":"Point","coordinates":[103.9206326,1.3065571]}},{"type":"Feature","properties":{"all_schools_2016":"VICTORIA SCHOOL","address":"2 SIGLAP LINK","postal_code":448880},"geometry":{"type":"Point","coordinates":[103.927638,1.308378]}},{"type":"Feature","properties":{"all_schools_2016":"WATERWAY PRIMARY SCHOOL","address":"70 Punggol Drive","postal_code":828802},"geometry":{"type":"Point","coordinates":[103.9184708,1.3990541]}},{"type":"Feature","properties":{"all_schools_2016":"WELLINGTON PRIMARY SCHOOL","address":"10 WELLINGTON CIRCLE","postal_code":757702},"geometry":{"type":"Point","coordinates":[103.8223159,1.4519101]}},{"type":"Feature","properties":{"all_schools_2016":"WEST GROVE PRIMARY SCHOOL","address":"1 JURONG WEST ST 72","postal_code":649223},"geometry":{"type":"Point","coordinates":[103.6989427,1.3446825]}},{"type":"Feature","properties":{"all_schools_2016":"WEST SPRING PRIMARY SCHOOL","address":"60 Bukit Panjang Ring Road","postal_code":679946},"geometry":{"type":"Point","coordinates":[103.7662554,1.3893631]}},{"type":"Feature","properties":{"all_schools_2016":"WEST SPRING SECONDARY SCHOOL","address":"61 SENJA ROAD","postal_code":677737},"geometry":{"type":"Point","coordinates":[103.7599781,1.3879387]}},{"type":"Feature","properties":{"all_schools_2016":"WEST VIEW PRIMARY SCHOOL","address":"31 SENJA ROAD","postal_code":677742},"geometry":{"type":"Point","coordinates":[103.7599995,1.3836161]}},{"type":"Feature","properties":{"all_schools_2016":"WESTWOOD PRIMARY SCHOOL","address":"1 Jurong West Street 73","postal_code":649188},"geometry":{"type":"Point","coordinates":[103.7005172,1.3476282]}},{"type":"Feature","properties":{"all_schools_2016":"WESTWOOD SECONDARY SCHOOL","address":"11 JURONG WEST STREET 25","postal_code":648350},"geometry":{"type":"Point","coordinates":[103.7017949,1.3537784]}},{"type":"Feature","properties":{"all_schools_2016":"WHITE SANDS PRIMARY SCHOOL","address":"2 PASIR RIS ST 11","postal_code":519075},"geometry":{"type":"Point","coordinates":[103.9612262,1.3655111]}},{"type":"Feature","properties":{"all_schools_2016":"WHITLEY SECONDARY SCHOOL","address":"30 BISHAN STREET 24","postal_code":579747},"geometry":{"type":"Point","coordinates":[103.8429934,1.3555371]}},{"type":"Feature","properties":{"all_schools_2016":"WOODGROVE PRIMARY SCHOOL","address":"2 WOODLANDS DRIVE 14 WOODGROVE PRIMARY SCHOOL","postal_code":738079},"geometry":{"type":"Point","coordinates":[103.7905773,1.4333246]}},{"type":"Feature","properties":{"all_schools_2016":"WOODGROVE SECONDARY SCHOOL","address":"3 WOODLANDS AVENUE 6","postal_code":738990},"geometry":{"type":"Point","coordinates":[103.797442,1.429005]}},{"type":"Feature","properties":{"all_schools_2016":"WOODLANDS PRIMARY SCHOOL","address":"10 WOODLANDS DRIVE 50","postal_code":738853},"geometry":{"type":"Point","coordinates":[103.7915775,1.4367882]}},{"type":"Feature","properties":{"all_schools_2016":"WOODLANDS RING PRIMARY SCHOOL","address":"11 WOODLANDS RING ROAD","postal_code":738240},"geometry":{"type":"Point","coordinates":[103.7978994,1.4345519]}},{"type":"Feature","properties":{"all_schools_2016":"WOODLANDS RING SECONDARY SCHOOL","address":"10 WOODLANDS RING ROAD","postal_code":738239},"geometry":{"type":"Point","coordinates":[103.800671,1.436147]}},{"type":"Feature","properties":{"all_schools_2016":"WOODLANDS SECONDARY SCHOOL","address":"11 MARSILING ROAD","postal_code":739111},"geometry":{"type":"Point","coordinates":[103.774358,1.4399817]}},{"type":"Feature","properties":{"all_schools_2016":"XINGHUA PRIMARY SCHOOL","address":"45 HOUGANG AVENUE 1","postal_code":538882},"geometry":{"type":"Point","coordinates":[103.8901506,1.3578717]}},{"type":"Feature","properties":{"all_schools_2016":"XINGNAN PRIMARY SCHOOL","address":"5 JURONG WEST STREET 91","postal_code":649036},"geometry":{"type":"Point","coordinates":[103.68778,1.34283]}},{"type":"Feature","properties":{"all_schools_2016":"XINMIN PRIMARY SCHOOL","address":"9 HOUGANG AVENUE 8","postal_code":538784},"geometry":{"type":"Point","coordinates":[103.883074,1.371371]}},{"type":"Feature","properties":{"all_schools_2016":"XINMIN SECONDARY SCHOOL","address":"11 HOUGANG AVENUE 8","postal_code":538789},"geometry":{"type":"Point","coordinates":[103.8828692,1.3720807]}},{"type":"Feature","properties":{"all_schools_2016":"XISHAN PRIMARY SCHOOL","address":"8 YISHUN STREET 21","postal_code":768611},"geometry":{"type":"Point","coordinates":[103.8378387,1.4334989]}},{"type":"Feature","properties":{"all_schools_2016":"YANGZHENG PRIMARY SCHOOL","address":"15 SERANGOON AVENUE 3","postal_code":556108},"geometry":{"type":"Point","coordinates":[103.8683225,1.3488247]}},{"type":"Feature","properties":{"all_schools_2016":"YEW TEE PRIMARY SCHOOL","address":"10 CHOA CHU KANG ST 64","postal_code":689100},"geometry":{"type":"Point","coordinates":[103.7511828,1.3969777]}},{"type":"Feature","properties":{"all_schools_2016":"YIO CHU KANG PRIMARY SCHOOL","address":"1 HOUGANG STREET 51","postal_code":538720},"geometry":{"type":"Point","coordinates":[103.8855819,1.3779984]}},{"type":"Feature","properties":{"all_schools_2016":"YIO CHU KANG SECONDARY SCHOOL","address":"3063 ANG MO KIO AVENUE 5","postal_code":569868},"geometry":{"type":"Point","coordinates":[103.841765,1.3781326]}},{"type":"Feature","properties":{"all_schools_2016":"YISHUN JUNIOR COLLEGE","address":"3 YISHUN RING ROAD","postal_code":768675},"geometry":{"type":"Point","coordinates":[103.8302958,1.4249325]}},{"type":"Feature","properties":{"all_schools_2016":"YISHUN PRIMARY SCHOOL","address":"500 YISHUN RING ROAD","postal_code":768679},"geometry":{"type":"Point","coordinates":[103.8337811,1.4334921]}},{"type":"Feature","properties":{"all_schools_2016":"YISHUN SECONDARY SCHOOL","address":"4 YISHUN STREET 71","postal_code":768516},"geometry":{"type":"Point","coordinates":[103.828833,1.428129]}},{"type":"Feature","properties":{"all_schools_2016":"YISHUN TOWN SECONDARY SCHOOL","address":"6 YISHUN STREET 21","postal_code":768610},"geometry":{"type":"Point","coordinates":[103.8381008,1.4327369]}},{"type":"Feature","properties":{"all_schools_2016":"YU NENG PRIMARY SCHOOL","address":"56 BEDOK NORTH ST 3","postal_code":469623},"geometry":{"type":"Point","coordinates":[103.9316452,1.3337404]}},{"type":"Feature","properties":{"all_schools_2016":"YUAN CHING SECONDARY SCHOOL","address":"103 YUAN CHING ROAD","postal_code":618654},"geometry":{"type":"Point","coordinates":[103.7204095,1.3420389]}},{"type":"Feature","properties":{"all_schools_2016":"YUHUA PRIMARY SCHOOL","address":"158 JURONG EAST STREET 24","postal_code":609558},"geometry":{"type":"Point","coordinates":[103.740763,1.343263]}},{"type":"Feature","properties":{"all_schools_2016":"YUHUA SECONDARY SCHOOL","address":"35 JURONG WEST STREET 41","postal_code":649406},"geometry":{"type":"Point","coordinates":[103.722396,1.3472609]}},{"type":"Feature","properties":{"all_schools_2016":"YUMIN PRIMARY SCHOOL","address":"3 TAMPINES STREET 21","postal_code":529393},"geometry":{"type":"Point","coordinates":[103.9507843,1.3513975]}},{"type":"Feature","properties":{"all_schools_2016":"YUSOF ISHAK SECONDARY SCHOOL","address":"11 BUKIT BATOK STREET 25","postal_code":658712},"geometry":{"type":"Point","coordinates":[103.760309,1.342423]}},{"type":"Feature","properties":{"all_schools_2016":"YUYING SECONDARY SCHOOL","address":"47 HOUGANG AVENUE 1","postal_code":538884},"geometry":{"type":"Point","coordinates":[103.890092,1.356754]}},{"type":"Feature","properties":{"all_schools_2016":"ZHANGDE PRIMARY SCHOOL","address":"51 Jalan Membina","postal_code":169485},"geometry":{"type":"Point","coordinates":[103.826193,1.284578]}},{"type":"Feature","properties":{"all_schools_2016":"ZHENGHUA PRIMARY SCHOOL","address":"9 Fajar Road","postal_code":679002},"geometry":{"type":"Point","coordinates":[103.7691787,1.3799372]}},{"type":"Feature","properties":{"all_schools_2016":"ZHENGHUA SECONDARY SCHOOL","address":"91 SENJA ROAD","postal_code":677741},"geometry":{"type":"Point","coordinates":[103.765155,1.3887467]}},{"type":"Feature","properties":{"all_schools_2016":"ZHONGHUA PRIMARY SCHOOL","address":"12 SERANGOON AVENUE 4 ZHONGHUA PRIMARY SCHOOL","postal_code":556095},"geometry":{"type":"Point","coordinates":[103.8696227,1.3598616]}},{"type":"Feature","properties":{"all_schools_2016":"ZHONGHUA SECONDARY SCHOOL","address":"13 SERANGOON AVENUE 3","postal_code":556123},"geometry":{"type":"Point","coordinates":[103.8692504,1.3494016]}}]}